STARLINK-1434           
1 45712U 20035BH  26068.24137979  .00054112  00000+0  20295-2 0  9995
2 45712  53.0547  22.1128 0005343  88.0400 272.1210 15.26724568319325
STARLINK-31970          
1 59928U 24106G   26068.11044465 -.00001993  00000+0 -62900-4 0  9997
2 59928  43.0032 335.8462 0001166 262.4083  97.6636 15.27580902100486
